{"type": "FeatureCollection", "features": [ {"type": "Feature", "properties": {"norad_id": 66900, "name": "STARLINK-36074", "group": "last-30-days", "lat": -50.08857454591058, "lon": -38.35963680905751, "alt_km": 353.3463573440613, "timestamp": "2025-12-22T09:53:36.145795+00:00", "meta": {"OBJECT_NAME": "STARLINK-36074", "OBJECT_ID": "2025-283Y", "EPOCH": "2025-12-22T04:00:01.998720", "MEAN_MOTION": 15.74659056, "ECCENTRICITY": 0.0001008, "INCLINATION": 53.1581, "RA_OF_ASC_NODE": 26.544, "ARG_OF_PERICENTER": 52.453, "MEAN_ANOMALY": 281.8093, "EPHEMERIS_TYPE": 0, "CLASSIFICATION_TYPE": "U", "NORAD_CAT_ID": 66900, "ELEMENT_SET_NO": 999, "REV_AT_EPOCH": 394, "BSTAR": -0.011963, "MEAN_MOTION_DOT": -0.0159359, "MEAN_MOTION_DDOT": 0}, "tle": {"line1": "1 66900U 25283Y   25356.16668980 -.01593590  00000+0 -11963-1 0  9990", "line2": "2 66900  53.1581  26.5440 0001008  52.4530 281.8093 15.74659056  3940"}}, "geometry": {"type": "Point", "coordinates": [-38.35963680905751, -50.08857454591058]}}, {"type": "Feature", "properties": {"norad_id": 66901, "name": "STARLINK-36043", "group": "last-30-days", "lat": -49.36729906338444, "lon": -35.580232653492324, "alt_km": 353.366590282023, "timestamp": "2025-12-22T09:53:36.145806+00:00", "meta": {"OBJECT_NAME": "STARLINK-36043", "OBJECT_ID": "2025-283Z", "EPOCH": "2025-12-22T04:00:01.998720", "MEAN_MOTION": 15.74628097, "ECCENTRICITY": 7.3e-05, "INCLINATION": 53.158, "RA_OF_ASC_NODE": 26.5397, "ARG_OF_PERICENTER": 78.9115, "MEAN_ANOMALY": 257.3182, "EPHEMERIS_TYPE": 0, "CLASSIFICATION_TYPE": "U", "NORAD_CAT_ID": 66901, "ELEMENT_SET_NO": 999, "REV_AT_EPOCH": 394, "BSTAR": -0.012033, "MEAN_MOTION_DOT": -0.01599725, "MEAN_MOTION_DDOT": 0}, "tle": {"line1": "1 66901U 25283Z   25356.16668980 -.01599725  00000+0 -12033-1 0  9996", "line2": "2 66901  53.1580  26.5397 0000730  78.9115 257.3182 15.74628097  3942"}}, "geometry": {"type": "Point", "coordinates": [-35.580232653492324, -49.36729906338444]}}, {"type": "Feature", "properties": {"norad_id": 66902, "name": "STARLINK-35983", "group": "last-30-days", "lat": -48.605544484907604, "lon": -32.96358587324273, "alt_km": 353.65983722850433, "timestamp": "2025-12-22T09:53:36.145816+00:00", "meta": {"OBJECT_NAME": "STARLINK-35983", "OBJECT_ID": "2025-283AA", "EPOCH": "2025-12-22T04:00:01.998720", "MEAN_MOTION": 15.74572781, "ECCENTRICITY": 0.0001183, "INCLINATION": 53.158, "RA_OF_ASC_NODE": 26.5357, "ARG_OF_PERICENTER": 83.121, "MEAN_ANOMALY": 255.0166, "EPHEMERIS_TYPE": 0, "CLASSIFICATION_TYPE": "U", "NORAD_CAT_ID": 66902, "ELEMENT_SET_NO": 999, "REV_AT_EPOCH": 394, "BSTAR": -0.011237, "MEAN_MOTION_DOT": -0.0147502, "MEAN_MOTION_DDOT": 0}, "tle": {"line1": "1 66902U 25283AA  25356.16668980 -.01475020  00000+0 -11237-1 0  9993", "line2": "2 66902  53.1580  26.5357 0001183  83.1210 255.0166 15.74572781  3941"}}, "geometry": {"type": "Point", "coordinates": [-32.96358587324273, -48.605544484907604]}}, {"type": "Feature", "properties": {"norad_id": 66903, "name": "STARLINK-36077", "group": "last-30-days", "lat": -47.768538935883505, "lon": -30.374937007868763, "alt_km": 353.47935195586706, "timestamp": "2025-12-22T09:53:36.145826+00:00", "meta": {"OBJECT_NAME": "STARLINK-36077", "OBJECT_ID": "2025-283AB", "EPOCH": "2025-12-22T04:00:01.998720", "MEAN_MOTION": 15.74650079, "ECCENTRICITY": 0.0001125, "INCLINATION": 53.1582, "RA_OF_ASC_NODE": 26.5321, "ARG_OF_PERICENTER": 76.2119, "MEAN_ANOMALY": 263.8051, "EPHEMERIS_TYPE": 0, "CLASSIFICATION_TYPE": "U", "NORAD_CAT_ID": 66903, "ELEMENT_SET_NO": 999, "REV_AT_EPOCH": 394, "BSTAR": -0.011923, "MEAN_MOTION_DOT": -0.01588303, "MEAN_MOTION_DDOT": 0}, "tle": {"line1": "1 66903U 25283AB  25356.16668980 -.01588303  00000+0 -11923-1 0  9995", "line2": "2 66903  53.1582  26.5321 0001125  76.2119 263.8051 15.74650079  3949"}}, "geometry": {"type": "Point", "coordinates": [-30.374937007868763, -47.768538935883505]}}, {"type": "Feature", "properties": {"norad_id": 66904, "name": "STARLINK-36059", "group": "last-30-days", "lat": -46.879976176524806, "lon": -27.885021506272157, "alt_km": 353.072353516015, "timestamp": "2025-12-22T09:53:36.145836+00:00", "meta": {"OBJECT_NAME": "STARLINK-36059", "OBJECT_ID": "2025-283AC", "EPOCH": "2025-12-22T04:00:01.998720", "MEAN_MOTION": 15.74646046, "ECCENTRICITY": 9.11e-05, "INCLINATION": 53.1584, "RA_OF_ASC_NODE": 26.5277, "ARG_OF_PERICENTER": 57.9643, "MEAN_ANOMALY": 283.9684, "EPHEMERIS_TYPE": 0, "CLASSIFICATION_TYPE": "U", "NORAD_CAT_ID": 66904, "ELEMENT_SET_NO": 999, "REV_AT_EPOCH": 394, "BSTAR": -0.011814, "MEAN_MOTION_DOT": -0.01574996, "MEAN_MOTION_DDOT": 0}, "tle": {"line1": "1 66904U 25283AC  25356.16668980 -.01574996  00000+0 -11814-1 0  9998", "line2": "2 66904  53.1584  26.5277 0000911  57.9643 283.9684 15.74646046  3946"}}, "geometry": {"type": "Point", "coordinates": [-27.885021506272157, -46.879976176524806]}}, {"type": "Feature", "properties": {"norad_id": 66905, "name": "STARLINK-36075", "group": "last-30-days", "lat": -45.94252949864877, "lon": -25.48744933319406, "alt_km": 353.5819006043821, "timestamp": "2025-12-22T09:53:36.145846+00:00", "meta": {"OBJECT_NAME": "STARLINK-36075", "OBJECT_ID": "2025-283AD", "EPOCH": "2025-12-22T04:00:01.998720", "MEAN_MOTION": 15.74577972, "ECCENTRICITY": 0.0001316, "INCLINATION": 53.1582, "RA_OF_ASC_NODE": 26.5241, "ARG_OF_PERICENTER": 81.4549, "MEAN_ANOMALY": 262.4226, "EPHEMERIS_TYPE": 0, "CLASSIFICATION_TYPE": "U", "NORAD_CAT_ID": 66905, "ELEMENT_SET_NO": 999, "REV_AT_EPOCH": 394, "BSTAR": -0.011222, "MEAN_MOTION_DOT": -0.0147365, "MEAN_MOTION_DDOT": 0}, "tle": {"line1": "1 66905U 25283AD  25356.16668980 -.01473650  00000+0 -11222-1 0  9997", "line2": "2 66905  53.1582  26.5241 0001316  81.4549 262.4226 15.74577972  3948"}}, "geometry": {"type": "Point", "coordinates": [-25.48744933319406, -45.94252949864877]}}, {"type": "Feature", "properties": {"norad_id": 66906, "name": "1998-067XS", "group": "last-30-days", "lat": 51.29682636898653, "lon": -166.9797496455077, "alt_km": 408.32939084609916, "timestamp": "2025-12-22T09:53:36.145858+00:00", "meta": {"OBJECT_NAME": "1998-067XS", "OBJECT_ID": "1998-067XS", "EPOCH": "2025-12-21T16:28:28.030656", "MEAN_MOTION": 15.51020739, "ECCENTRICITY": 0.0002929, "INCLINATION": 51.6318, "RA_OF_ASC_NODE": 98.0337, "ARG_OF_PERICENTER": 244.8837, "MEAN_ANOMALY": 115.1848, "EPHEMERIS_TYPE": 0, "CLASSIFICATION_TYPE": "U", "NORAD_CAT_ID": 66906, "ELEMENT_SET_NO": 999, "REV_AT_EPOCH": 300, "BSTAR": 0.0004307, "MEAN_MOTION_DOT": 0.00025109, "MEAN_MOTION_DDOT": 0}, "tle": {"line1": "1 66906U 98067XS  25355.68643554  .00025109  00000+0  43070-3 0  9991", "line2": "2 66906  51.6318  98.0337 0002929 244.8837 115.1848 15.51020739  3005"}}, "geometry": {"type": "Point", "coordinates": [-166.9797496455077, 51.29682636898653]}}, {"type": "Feature", "properties": {"norad_id": 66907, "name": "1998-067XT", "group": "last-30-days", "lat": 20.85750142467911, "lon": -103.2599034707187, "alt_km": 408.5540105332784, "timestamp": "2025-12-22T09:53:36.145868+00:00", "meta": {"OBJECT_NAME": "1998-067XT", "OBJECT_ID": "1998-067XT", "EPOCH": "2025-12-21T16:14:38.830848", "MEAN_MOTION": 15.52487606, "ECCENTRICITY": 0.0003834, "INCLINATION": 51.6315, "RA_OF_ASC_NODE": 97.969, "ARG_OF_PERICENTER": 280.3147, "MEAN_ANOMALY": 79.741, "EPHEMERIS_TYPE": 0, "CLASSIFICATION_TYPE": "U", "NORAD_CAT_ID": 66907, "ELEMENT_SET_NO": 999, "REV_AT_EPOCH": 300, "BSTAR": 0.00094407, "MEAN_MOTION_DOT": 0.00058863, "MEAN_MOTION_DDOT": 0}, "tle": {"line1": "1 66907U 98067XT  25355.67683832  .00058863  00000+0  94407-3 0  9997", "line2": "2 66907  51.6315  97.9690 0003834 280.3147  79.7410 15.52487606  3009"}}, "geometry": {"type": "Point", "coordinates": [-103.2599034707187, 20.85750142467911]}}, {"type": "Feature", "properties": {"norad_id": 66908, "name": "1998-067XU", "group": "last-30-days", "lat": 17.02759083670887, "lon": -99.74441513052152, "alt_km": 408.7181192437847, "timestamp": "2025-12-22T09:53:36.145878+00:00", "meta": {"OBJECT_NAME": "1998-067XU", "OBJECT_ID": "1998-067XU", "EPOCH": "2025-12-21T00:46:29.963136", "MEAN_MOTION": 15.52510982, "ECCENTRICITY": 0.00039042, "INCLINATION": 51.6311, "RA_OF_ASC_NODE": 101.1653, "ARG_OF_PERICENTER": 276.2494, "MEAN_ANOMALY": 83.8051, "EPHEMERIS_TYPE": 0, "CLASSIFICATION_TYPE": "U", "NORAD_CAT_ID": 66908, "ELEMENT_SET_NO": 999, "REV_AT_EPOCH": 290, "BSTAR": 0.00080289362, "MEAN_MOTION_DOT": 0.00049977, "MEAN_MOTION_DDOT": 0}, "tle": {"line1": "1 66908U 98067XU  25355.03229124  .00049977  00000+0  80289-3 0  9997", "line2": "2 66908  51.6311 101.1653 0003904 276.2494  83.8051 15.52510982  2909"}}, "geometry": {"type": "Point", "coordinates": [-99.74441513052152, 17.02759083670887]}}, {"type": "Feature", "properties": {"norad_id": 66909, "name": "SILVERSAT", "group": "last-30-days", "lat": 11.668408380416668, "lon": -95.13210066144586, "alt_km": 408.8278526060694, "timestamp": "2025-12-22T09:53:36.145888+00:00", "meta": {"OBJECT_NAME": "SILVERSAT", "OBJECT_ID": "1998-067XV", "EPOCH": "2025-12-21T16:11:43.946016", "MEAN_MOTION": 15.52760734, "ECCENTRICITY": 0.0003783, "INCLINATION": 51.6311, "RA_OF_ASC_NODE": 97.9558, "ARG_OF_PERICENTER": 283.7129, "MEAN_ANOMALY": 76.344, "EPHEMERIS_TYPE": 0, "CLASSIFICATION_TYPE": "U", "NORAD_CAT_ID": 66909, "ELEMENT_SET_NO": 999, "REV_AT_EPOCH": 300, "BSTAR": 0.0010102, "MEAN_MOTION_DOT": 0.00063686, "MEAN_MOTION_DDOT": 0}, "tle": {"line1": "1 66909U 98067XV  25355.67481419  .00063686  00000+0  10102-2 0  9994", "line2": "2 66909  51.6311  97.9558 0003783 283.7129  76.3440 15.52760734  3002"}}, "geometry": {"type": "Point", "coordinates": [-95.13210066144586, 11.668408380416668]}}]}